STARLINK-2022           
1 47643U 21012Z   23210.75024717  .00001761  00000+0  13708-3 0  9997
2 47643  53.0553  14.0246 0001338  91.3287 268.7855 15.06404478135963
